{
  "norad_id": 67915,
  "name": "STARLINK-36723",
  "history": [
    {
      "epoch": "2026-03-28T22:00:01.999584Z",
      "apogee_km": 481.4098919473481,
      "perigee_km": 479.6880874164981,
      "latitude_deg": 6.165015735756845,
      "longitude_deg": -13.166183919531097,
      "height_km": 480.009959377663,
      "semi_major_axis_km": 6858.685989681922,
      "eccentricity": 0.00012552,
      "inclination_deg": 43.0008,
      "raan_deg": 136.5578,
      "arg_perigee_deg": 260.423,
      "mean_anomaly_deg": 108.6535,
      "mean_motion_rev_day": 15.28415319
    },
    {
      "epoch": "2026-03-29T04:14:05.965152Z",
      "apogee_km": 480.89748342397615,
      "perigee_km": 479.99215062412895,
      "latitude_deg": -2.3546482712348996e-05,
      "longitude_deg": -115.02288563936035,
      "height_km": 480.19264638043006,
      "semi_major_axis_km": 6858.581817024053,
      "eccentricity": 6.6e-05,
      "inclination_deg": 42.9955,
      "raan_deg": 135.0883,
      "arg_perigee_deg": 86.6697,
      "mean_anomaly_deg": 273.423,
      "mean_motion_rev_day": 15.28450141
    },
    {
      "epoch": "2026-03-30T03:45:40.195008Z",
      "apogee_km": 480.80441830466407,
      "perigee_km": 480.23240644327234,
      "latitude_deg": -1.626022534869258e-05,
      "longitude_deg": -114.42388733922792,
      "height_km": 480.54862348112454,
      "semi_major_axis_km": 6858.655412373968,
      "eccentricity": 4.17e-05,
      "inclination_deg": 42.9999,
      "raan_deg": 129.5461,
      "arg_perigee_deg": 207.0407,
      "mean_anomaly_deg": 153.0423,
      "mean_motion_rev_day": 15.2842554
    },
    {
      "epoch": "2026-03-30T03:45:40.195872Z",
      "apogee_km": 480.8042125450029,
      "perigee_km": 480.23261220293443,
      "latitude_deg": -1.7341745312930685e-05,
      "longitude_deg": -114.42389210244752,
      "height_km": 480.548440241411,
      "semi_major_axis_km": 6858.655412373968,
      "eccentricity": 4.167e-05,
      "inclination_deg": 42.9999,
      "raan_deg": 129.5461,
      "arg_perigee_deg": 207.0407,
      "mean_anomaly_deg": 153.0423,
      "mean_motion_rev_day": 15.2842554
    },
    {
      "epoch": "2026-03-30T11:36:12.970944Z",
      "apogee_km": 480.90160595460384,
      "perigee_km": 480.53753784776745,
      "latitude_deg": -2.6087057126677235e-05,
      "longitude_deg": 125.76995868058918,
      "height_km": 480.6338063591717,
      "semi_major_axis_km": 6858.856571901186,
      "eccentricity": 2.654e-05,
      "inclination_deg": 42.996,
      "raan_deg": 127.6986,
      "arg_perigee_deg": 140.0466,
      "mean_anomaly_deg": 220.0405,
      "mean_motion_rev_day": 15.28358301
    },
    {
      "epoch": "2026-03-30T19:26:57.198336Z",
      "apogee_km": 485.3266840547667,
      "perigee_km": 478.8174432867936,
      "latitude_deg": -3.236357597404602e-05,
      "longitude_deg": 5.915563456235558,
      "height_km": 481.0186258719474,
      "semi_major_axis_km": 6860.20906367078,
      "eccentricity": 0.00047442,
      "inclination_deg": 42.9993,
      "raan_deg": 125.8507,
      "arg_perigee_deg": 75.3574,
      "mean_anomaly_deg": 284.7803,
      "mean_motion_rev_day": 15.27906349
    }
  ]
}